{
"type": "FeatureCollection",
"name": "polkuja",
"crs": { "type": "name", "properties": { "name": "urn:ogc:def:crs:OGC:1.3:CRS84" } },
"xy_coordinate_resolution": 1e-06,
"features": [
{ "type": "Feature", "properties": { }, "geometry": { "type": "LineString", "coordinates": [ [ 26.921775, 60.581554 ], [ 26.921781, 60.581507 ], [ 26.921748, 60.581474 ], [ 26.921631, 60.58146 ], [ 26.921326, 60.581508 ] ] } },
{ "type": "Feature", "properties": { }, "geometry": { "type": "LineString", "coordinates": [ [ 26.923235, 60.57528 ], [ 26.923223, 60.575376 ], [ 26.92306, 60.575643 ], [ 26.92298, 60.575867 ], [ 26.922794, 60.576202 ], [ 26.922733, 60.57645 ], [ 26.92256, 60.576632 ], [ 26.922471, 60.576839 ], [ 26.92231, 60.577107 ], [ 26.922359, 60.57734 ], [ 26.922454, 60.577447 ], [ 26.922676, 60.577544 ], [ 26.922712, 60.577623 ], [ 26.922701, 60.577759 ], [ 26.92264, 60.577877 ], [ 26.922536, 60.577975 ], [ 26.922384, 60.578021 ], [ 26.922215, 60.578043 ], [ 26.922, 60.578097 ] ] } },
{ "type": "Feature", "properties": { }, "geometry": { "type": "LineString", "coordinates": [ [ 26.920322, 60.57533 ], [ 26.920499, 60.575361 ], [ 26.921051, 60.575336 ], [ 26.922539, 60.575215 ], [ 26.923235, 60.57528 ], [ 26.924755, 60.575366 ], [ 26.926596, 60.575552 ], [ 26.928389, 60.575692 ], [ 26.930212, 60.575854 ], [ 26.930269, 60.575859 ] ] } },
{ "type": "Feature", "properties": { }, "geometry": { "type": "LineString", "coordinates": [ [ 26.927424, 60.608402 ], [ 26.927156, 60.608447 ], [ 26.926829, 60.608329 ], [ 26.926663, 60.608159 ], [ 26.926863, 60.607978 ] ] } },
{ "type": "Feature", "properties": { }, "geometry": { "type": "LineString", "coordinates": [ [ 26.926312, 60.581443 ], [ 26.926293, 60.581406 ], [ 26.926257, 60.581338 ], [ 26.926205, 60.581316 ], [ 26.92614, 60.581317 ], [ 26.926085, 60.581333 ], [ 26.926025, 60.581376 ], [ 26.925985, 60.581382 ], [ 26.92587, 60.581357 ], [ 26.925728, 60.581375 ], [ 26.925681, 60.5814 ], [ 26.925666, 60.581426 ] ] } },
{ "type": "Feature", "properties": { }, "geometry": { "type": "LineString", "coordinates": [ [ 26.892466, 60.562876 ], [ 26.892505, 60.562874 ], [ 26.89303, 60.562979 ], [ 26.893721, 60.563243 ], [ 26.894365, 60.563612 ], [ 26.894568, 60.564081 ], [ 26.894496, 60.564373 ], [ 26.894746, 60.564555 ], [ 26.895318, 60.564766 ], [ 26.896111, 60.564975 ] ] } },
{ "type": "Feature", "properties": { }, "geometry": { "type": "LineString", "coordinates": [ [ 26.896616, 60.623529 ], [ 26.897021, 60.623586 ], [ 26.897282, 60.623596 ], [ 26.897779, 60.623486 ] ] } },
{ "type": "Feature", "properties": { }, "geometry": { "type": "LineString", "coordinates": [ [ 26.902103, 60.581303 ], [ 26.901822, 60.581327 ], [ 26.901738, 60.581334 ], [ 26.901531, 60.581352 ] ] } },
{ "type": "Feature", "properties": { }, "geometry": { "type": "LineString", "coordinates": [ [ 26.905011, 60.580275 ], [ 26.904588, 60.580349 ] ] } },
{ "type": "Feature", "properties": { }, "geometry": { "type": "LineString", "coordinates": [ [ 26.89933, 60.569354 ], [ 26.899247, 60.56943 ] ] } },
{ "type": "Feature", "properties": { }, "geometry": { "type": "LineString", "coordinates": [ [ 26.896246, 60.574364 ], [ 26.896572, 60.57445 ], [ 26.896725, 60.574497 ], [ 26.896867, 60.574558 ], [ 26.897005, 60.574645 ], [ 26.897048, 60.574718 ], [ 26.897015, 60.574784 ] ] } },
{ "type": "Feature", "properties": { }, "geometry": { "type": "LineString", "coordinates": [ [ 26.88767, 60.586626 ], [ 26.888003, 60.586499 ], [ 26.88808, 60.586418 ], [ 26.888094, 60.586321 ], [ 26.887964, 60.586118 ], [ 26.888027, 60.585815 ] ] } },
{ "type": "Feature", "properties": { }, "geometry": { "type": "LineString", "coordinates": [ [ 26.88649, 60.581322 ], [ 26.886747, 60.581404 ], [ 26.887219, 60.581626 ], [ 26.88797, 60.581721 ], [ 26.888782, 60.581664 ] ] } },
{ "type": "Feature", "properties": { }, "geometry": { "type": "LineString", "coordinates": [ [ 26.891628, 60.574028 ], [ 26.891489, 60.573815 ], [ 26.892062, 60.573543 ] ] } },
{ "type": "Feature", "properties": { }, "geometry": { "type": "LineString", "coordinates": [ [ 26.902282, 60.603588 ], [ 26.901914, 60.603774 ], [ 26.902053, 60.603901 ], [ 26.90186, 60.604059 ], [ 26.901999, 60.604685 ], [ 26.901592, 60.605001 ], [ 26.901331, 60.605223 ] ] } },
{ "type": "Feature", "properties": { }, "geometry": { "type": "LineString", "coordinates": [ [ 26.900896, 60.605032 ], [ 26.900479, 60.605136 ], [ 26.900298, 60.605156 ], [ 26.900092, 60.605217 ], [ 26.899985, 60.605228 ], [ 26.899872, 60.605217 ], [ 26.899606, 60.605135 ], [ 26.899343, 60.605044 ], [ 26.899062, 60.604958 ], [ 26.898779, 60.604899 ], [ 26.898687, 60.604887 ], [ 26.89861, 60.604908 ], [ 26.898531, 60.604909 ], [ 26.898333, 60.604888 ], [ 26.898236, 60.604862 ], [ 26.898107, 60.604833 ], [ 26.898007, 60.604851 ], [ 26.897929, 60.604874 ], [ 26.897743, 60.604962 ], [ 26.897547, 60.605007 ], [ 26.897373, 60.605001 ], [ 26.897247, 60.604998 ], [ 26.897155, 60.605013 ], [ 26.897043, 60.605078 ], [ 26.896975, 60.605092 ], [ 26.896905, 60.605093 ], [ 26.896718, 60.605022 ], [ 26.896386, 60.604954 ], [ 26.896151, 60.60487 ], [ 26.895881, 60.604804 ], [ 26.895618, 60.604722 ], [ 26.895594, 60.604667 ], [ 26.895592, 60.604612 ], [ 26.895564, 60.604509 ], [ 26.89551, 60.604456 ], [ 26.895442, 60.604409 ], [ 26.895197, 60.604342 ], [ 26.895133, 60.604334 ], [ 26.895035, 60.604342 ], [ 26.894937, 60.604359 ], [ 26.894802, 60.604371 ], [ 26.894669, 60.60438 ], [ 26.894352, 60.60433 ], [ 26.894255, 60.60434 ], [ 26.894192, 60.604364 ], [ 26.894084, 60.604467 ], [ 26.893891, 60.604535 ], [ 26.89373, 60.604596 ], [ 26.893706, 60.604676 ], [ 26.893719, 60.60477 ], [ 26.893734, 60.60483 ], [ 26.893725, 60.604897 ], [ 26.893635, 60.604975 ], [ 26.893478, 60.605033 ], [ 26.893194, 60.605138 ], [ 26.893017, 60.605194 ], [ 26.892926, 60.605167 ], [ 26.892861, 60.605033 ], [ 26.892797, 60.604807 ], [ 26.892785, 60.604653 ], [ 26.892947, 60.604348 ], [ 26.893108, 60.604188 ], [ 26.893201, 60.60413 ], [ 26.89336, 60.604093 ], [ 26.893641, 60.604 ], [ 26.893693, 60.604013 ], [ 26.893761, 60.604014 ], [ 26.893862, 60.604008 ], [ 26.893978, 60.603994 ], [ 26.89408, 60.603957 ], [ 26.894204, 60.603959 ], [ 26.894433, 60.603977 ], [ 26.895039, 60.603935 ], [ 26.895378, 60.603941 ], [ 26.89563, 60.603974 ], [ 26.895772, 60.603998 ], [ 26.895896, 60.603979 ], [ 26.896064, 60.60393 ], [ 26.896225, 60.603938 ], [ 26.896402, 60.60408 ], [ 26.896911, 60.604277 ], [ 26.897056, 60.604388 ], [ 26.897169, 60.604512 ], [ 26.897678, 60.604651 ], [ 26.898113, 60.604683 ], [ 26.898322, 60.604696 ], [ 26.898596, 60.604588 ], [ 26.898826, 60.604475 ], [ 26.899416, 60.60424 ], [ 26.900055, 60.604167 ], [ 26.900207, 60.604137 ], [ 26.900312, 60.604117 ], [ 26.901122, 60.60393 ], [ 26.901914, 60.603774 ] ] } },
{ "type": "Feature", "properties": { }, "geometry": { "type": "LineString", "coordinates": [ [ 26.896722, 60.563942 ], [ 26.896417, 60.563927 ], [ 26.895975, 60.563877 ], [ 26.895635, 60.563842 ], [ 26.895306, 60.563723 ], [ 26.895068, 60.563426 ], [ 26.89496, 60.56319 ], [ 26.894443, 60.562991 ], [ 26.894157, 60.562854 ], [ 26.893881, 60.562655 ], [ 26.893628, 60.562464 ], [ 26.893466, 60.562337 ], [ 26.893612, 60.562162 ], [ 26.893649, 60.561971 ], [ 26.893515, 60.561801 ], [ 26.893439, 60.561674 ], [ 26.893563, 60.561557 ], [ 26.893563, 60.561403 ], [ 26.89352, 60.561194 ], [ 26.893396, 60.560979 ], [ 26.893321, 60.560725 ], [ 26.893169, 60.560566 ], [ 26.892986, 60.560383 ], [ 26.892754, 60.560279 ], [ 26.892722, 60.560197 ], [ 26.892722, 60.560112 ], [ 26.892975, 60.560025 ], [ 26.893164, 60.560001 ], [ 26.893283, 60.560049 ], [ 26.893391, 60.560131 ], [ 26.893596, 60.560189 ], [ 26.893752, 60.560194 ], [ 26.893757, 60.560019 ], [ 26.89414, 60.560027 ], [ 26.894305, 60.560003 ], [ 26.894394, 60.55999 ], [ 26.894459, 60.559913 ], [ 26.894464, 60.559627 ], [ 26.894464, 60.55959 ], [ 26.894615, 60.559455 ], [ 26.894923, 60.559378 ], [ 26.89543, 60.55937 ], [ 26.89571, 60.559391 ], [ 26.896142, 60.559327 ], [ 26.896525, 60.55932 ], [ 26.89687, 60.559354 ], [ 26.897161, 60.559362 ], [ 26.897593, 60.559218 ] ] } },
{ "type": "Feature", "properties": { }, "geometry": { "type": "LineString", "coordinates": [ [ 26.893283, 60.560049 ], [ 26.893757, 60.560019 ] ] } },
{ "type": "Feature", "properties": { }, "geometry": { "type": "LineString", "coordinates": [ [ 26.891083, 60.558385 ], [ 26.891002, 60.558751 ], [ 26.891004, 60.558993 ], [ 26.891216, 60.559241 ], [ 26.89187, 60.559405 ], [ 26.89231, 60.559489 ], [ 26.892418, 60.559626 ], [ 26.892622, 60.559727 ], [ 26.892718, 60.559938 ], [ 26.892975, 60.560025 ] ] } },
{ "type": "Feature", "properties": { }, "geometry": { "type": "LineString", "coordinates": [ [ 26.896722, 60.563942 ], [ 26.896727, 60.564044 ], [ 26.89672, 60.564186 ], [ 26.896878, 60.564203 ], [ 26.897299, 60.564314 ], [ 26.897653, 60.564435 ], [ 26.897965, 60.564466 ], [ 26.898168, 60.564451 ], [ 26.898651, 60.56453 ], [ 26.898815, 60.564563 ] ] } },
{ "type": "Feature", "properties": { }, "geometry": { "type": "LineString", "coordinates": [ [ 26.89672, 60.564186 ], [ 26.896501, 60.56504 ], [ 26.896259, 60.565959 ], [ 26.896106, 60.566585 ], [ 26.89598, 60.567103 ], [ 26.895711, 60.568005 ], [ 26.895632, 60.568303 ] ] } },
{ "type": "Feature", "properties": { }, "geometry": { "type": "LineString", "coordinates": [ [ 26.874537, 60.599164 ], [ 26.874357, 60.599175 ], [ 26.874255, 60.599171 ], [ 26.874156, 60.599138 ], [ 26.874004, 60.599077 ], [ 26.873843, 60.599013 ], [ 26.873632, 60.598871 ], [ 26.873564, 60.598826 ], [ 26.873367, 60.598748 ], [ 26.873255, 60.598703 ], [ 26.873161, 60.59865 ], [ 26.87313, 60.598622 ], [ 26.873096, 60.598592 ], [ 26.873001, 60.598552 ], [ 26.872846, 60.598511 ], [ 26.872691, 60.598462 ], [ 26.872563, 60.598413 ], [ 26.872448, 60.598347 ], [ 26.872388, 60.598271 ], [ 26.872383, 60.59819 ], [ 26.872384, 60.598113 ], [ 26.872366, 60.598043 ], [ 26.872261, 60.597967 ], [ 26.872131, 60.59787 ], [ 26.872081, 60.59786 ], [ 26.871997, 60.597876 ], [ 26.871738, 60.597919 ], [ 26.871571, 60.597917 ], [ 26.871495, 60.597872 ], [ 26.871476, 60.597799 ], [ 26.8715, 60.597731 ], [ 26.871503, 60.597672 ], [ 26.871451, 60.59761 ], [ 26.87128, 60.59745 ], [ 26.871232, 60.597325 ], [ 26.871252, 60.597201 ], [ 26.871245, 60.597082 ], [ 26.871295, 60.59697 ], [ 26.871348, 60.596838 ] ] } },
{ "type": "Feature", "properties": { }, "geometry": { "type": "LineString", "coordinates": [ [ 26.899247, 60.56943 ], [ 26.899076, 60.569386 ] ] } },
{ "type": "Feature", "properties": { }, "geometry": { "type": "LineString", "coordinates": [ [ 26.897374, 60.559466 ], [ 26.897196, 60.559644 ], [ 26.897268, 60.559713 ], [ 26.897472, 60.559752 ], [ 26.897752, 60.559853 ], [ 26.897824, 60.559928 ], [ 26.897839, 60.560038 ], [ 26.897721, 60.560093 ], [ 26.897598, 60.560194 ], [ 26.897573, 60.560273 ], [ 26.897662, 60.560373 ], [ 26.897695, 60.560504 ], [ 26.897507, 60.56058 ], [ 26.897367, 60.560651 ], [ 26.897213, 60.560711 ], [ 26.897118, 60.560751 ], [ 26.897299, 60.560778 ], [ 26.89744, 60.560771 ], [ 26.897664, 60.560764 ], [ 26.897878, 60.560755 ], [ 26.898094, 60.560758 ], [ 26.898369, 60.560777 ], [ 26.898607, 60.560807 ], [ 26.898866, 60.56085 ], [ 26.899094, 60.560901 ], [ 26.899383, 60.560954 ], [ 26.899562, 60.560957 ], [ 26.899701, 60.560954 ], [ 26.899761, 60.560959 ], [ 26.899834, 60.560986 ], [ 26.899889, 60.561021 ], [ 26.899874, 60.561087 ], [ 26.899869, 60.56113 ], [ 26.899866, 60.56116 ], [ 26.899839, 60.561217 ], [ 26.89979, 60.561291 ], [ 26.899754, 60.561355 ], [ 26.899807, 60.561458 ], [ 26.899774, 60.561524 ], [ 26.899756, 60.561598 ], [ 26.899756, 60.56169 ], [ 26.89977, 60.561725 ], [ 26.899808, 60.56176 ], [ 26.899882, 60.561776 ], [ 26.899929, 60.561781 ], [ 26.899977, 60.56178 ], [ 26.900114, 60.561771 ], [ 26.900238, 60.561755 ], [ 26.900393, 60.561733 ], [ 26.900588, 60.561718 ], [ 26.900785, 60.561723 ], [ 26.901081, 60.561647 ] ] } },
{ "type": "Feature", "properties": { }, "geometry": { "type": "LineString", "coordinates": [ [ 26.900785, 60.561723 ], [ 26.900826, 60.561739 ], [ 26.900872, 60.561783 ], [ 26.900918, 60.561824 ], [ 26.900971, 60.561841 ], [ 26.901198, 60.561832 ] ] } },
{ "type": "Feature", "properties": { }, "geometry": { "type": "LineString", "coordinates": [ [ 26.907401, 60.596501 ], [ 26.907354, 60.596431 ], [ 26.907312, 60.596419 ], [ 26.907266, 60.596418 ], [ 26.907216, 60.596429 ], [ 26.907113, 60.596414 ], [ 26.90709, 60.59639 ], [ 26.907113, 60.596367 ], [ 26.907189, 60.596341 ], [ 26.907325, 60.596292 ], [ 26.907396, 60.596268 ] ] } },
{ "type": "Feature", "properties": { }, "geometry": { "type": "LineString", "coordinates": [ [ 26.894464, 60.559627 ], [ 26.894386, 60.559693 ], [ 26.894167, 60.559737 ], [ 26.893992, 60.559734 ], [ 26.893822, 60.559781 ], [ 26.893708, 60.559863 ], [ 26.893638, 60.559937 ], [ 26.893554, 60.559963 ], [ 26.893314, 60.559963 ], [ 26.893164, 60.560001 ] ] } },
{ "type": "Feature", "properties": { }, "geometry": { "type": "LineString", "coordinates": [ [ 26.907402, 60.596544 ], [ 26.907583, 60.596544 ], [ 26.907684, 60.596526 ], [ 26.907721, 60.596482 ], [ 26.907741, 60.59642 ], [ 26.908597, 60.596 ], [ 26.908883, 60.595875 ], [ 26.909344, 60.595709 ] ] } },
{ "type": "Feature", "properties": { }, "geometry": { "type": "LineString", "coordinates": [ [ 26.927736, 60.582628 ], [ 26.926637, 60.582559 ] ] } },
{ "type": "Feature", "properties": { }, "geometry": { "type": "LineString", "coordinates": [ [ 26.894305, 60.560003 ], [ 26.894452, 60.560107 ], [ 26.894512, 60.560194 ], [ 26.894601, 60.560236 ], [ 26.894658, 60.560335 ], [ 26.894647, 60.56041 ], [ 26.894626, 60.560497 ], [ 26.894749, 60.560551 ], [ 26.894923, 60.56057 ], [ 26.895284, 60.56069 ], [ 26.895546, 60.560765 ], [ 26.89574, 60.560805 ], [ 26.895859, 60.560843 ], [ 26.895907, 60.560859 ], [ 26.896261, 60.560871 ], [ 26.89648, 60.560901 ], [ 26.896646, 60.560949 ], [ 26.89688, 60.560948 ], [ 26.897064, 60.560859 ], [ 26.897118, 60.560751 ] ] } },
{ "type": "Feature", "properties": { }, "geometry": { "type": "LineString", "coordinates": [ [ 26.859749, 60.596827 ], [ 26.859728, 60.596741 ], [ 26.859643, 60.596644 ], [ 26.859522, 60.596602 ], [ 26.859402, 60.596602 ] ] } },
{ "type": "Feature", "properties": { }, "geometry": { "type": "LineString", "coordinates": [ [ 26.898815, 60.564563 ], [ 26.898821, 60.564461 ], [ 26.898874, 60.564359 ], [ 26.898911, 60.564342 ], [ 26.898989, 60.564306 ], [ 26.899088, 60.564245 ], [ 26.899217, 60.564205 ], [ 26.899357, 60.564139 ], [ 26.899565, 60.56395 ], [ 26.899861, 60.563815 ], [ 26.899975, 60.563733 ], [ 26.900046, 60.563662 ], [ 26.900089, 60.563555 ], [ 26.90002, 60.56344 ], [ 26.899918, 60.563329 ], [ 26.899794, 60.563292 ], [ 26.899632, 60.563247 ], [ 26.899498, 60.563178 ], [ 26.899347, 60.563089 ], [ 26.899175, 60.563074 ], [ 26.898891, 60.563085 ], [ 26.898584, 60.56307 ], [ 26.898344, 60.563052 ], [ 26.898228, 60.563014 ], [ 26.898079, 60.562958 ], [ 26.897833, 60.562779 ], [ 26.897701, 60.562733 ], [ 26.897571, 60.562754 ], [ 26.89744, 60.562825 ], [ 26.897261, 60.562886 ], [ 26.897218, 60.562978 ], [ 26.897258, 60.563084 ], [ 26.897276, 60.563128 ], [ 26.89724, 60.563169 ], [ 26.89711, 60.563215 ], [ 26.897021, 60.563266 ], [ 26.896951, 60.563319 ], [ 26.897002, 60.563398 ], [ 26.897036, 60.563443 ], [ 26.89701, 60.563511 ], [ 26.896881, 60.563731 ], [ 26.896785, 60.563822 ], [ 26.896722, 60.563942 ] ] } },
{ "type": "Feature", "properties": { }, "geometry": { "type": "LineString", "coordinates": [ [ 26.897571, 60.562754 ], [ 26.897504, 60.562695 ], [ 26.897445, 60.562622 ], [ 26.897337, 60.562547 ], [ 26.897179, 60.562486 ], [ 26.897182, 60.562458 ], [ 26.897351, 60.562413 ], [ 26.897393, 60.562404 ], [ 26.897499, 60.562414 ], [ 26.897579, 60.562367 ], [ 26.897678, 60.56235 ], [ 26.897718, 60.562319 ], [ 26.897796, 60.562302 ], [ 26.897843, 60.562265 ], [ 26.897894, 60.562206 ], [ 26.898019, 60.562161 ], [ 26.898203, 60.562123 ], [ 26.898287, 60.562081 ], [ 26.898381, 60.562055 ], [ 26.898548, 60.561974 ], [ 26.898708, 60.561956 ], [ 26.898772, 60.561919 ], [ 26.898889, 60.561883 ], [ 26.89908, 60.561909 ], [ 26.899158, 60.561889 ], [ 26.899346, 60.561909 ], [ 26.899548, 60.561941 ], [ 26.899736, 60.561938 ], [ 26.899792, 60.561963 ], [ 26.899872, 60.561971 ], [ 26.899994, 60.561972 ], [ 26.900378, 60.561966 ], [ 26.900386, 60.561943 ], [ 26.900195, 60.561824 ], [ 26.900071, 60.561802 ], [ 26.899929, 60.561781 ] ] } },
{ "type": "Feature", "properties": { }, "geometry": { "type": "LineString", "coordinates": [ [ 26.899869, 60.56113 ], [ 26.900054, 60.561284 ], [ 26.900124, 60.561318 ], [ 26.900357, 60.561363 ], [ 26.900521, 60.561415 ], [ 26.900692, 60.561479 ], [ 26.900881, 60.561502 ], [ 26.900986, 60.561518 ] ] } },
{ "type": "Feature", "properties": { }, "geometry": { "type": "LineString", "coordinates": [ [ 26.871571, 60.597917 ], [ 26.871543, 60.597971 ], [ 26.871462, 60.59802 ], [ 26.871367, 60.598056 ], [ 26.871309, 60.598069 ], [ 26.871142, 60.598039 ], [ 26.870909, 60.597962 ], [ 26.870651, 60.597847 ], [ 26.870445, 60.597833 ], [ 26.87036, 60.597853 ], [ 26.870339, 60.597889 ], [ 26.870323, 60.597928 ], [ 26.87031, 60.597966 ], [ 26.870317, 60.598001 ], [ 26.870375, 60.598048 ], [ 26.870571, 60.598077 ], [ 26.87066, 60.598112 ], [ 26.870982, 60.598251 ], [ 26.871127, 60.598317 ], [ 26.871239, 60.598337 ], [ 26.871453, 60.598306 ], [ 26.871604, 60.598291 ], [ 26.871795, 60.598339 ], [ 26.871998, 60.598441 ], [ 26.872075, 60.598497 ], [ 26.872425, 60.598632 ], [ 26.872571, 60.5987 ], [ 26.872636, 60.598752 ], [ 26.87258, 60.598864 ], [ 26.872624, 60.598902 ], [ 26.872852, 60.599018 ], [ 26.87302, 60.59908 ], [ 26.873112, 60.599113 ], [ 26.873263, 60.59915 ], [ 26.873366, 60.599179 ], [ 26.873446, 60.599199 ], [ 26.873598, 60.599217 ], [ 26.873822, 60.599255 ], [ 26.873968, 60.599289 ], [ 26.874211, 60.599345 ], [ 26.874315, 60.599353 ], [ 26.874422, 60.599337 ], [ 26.874461, 60.599294 ], [ 26.874537, 60.599164 ] ] } },
{ "type": "Feature", "properties": { }, "geometry": { "type": "LineString", "coordinates": [ [ 26.884175, 60.568218 ], [ 26.884187, 60.56821 ], [ 26.884619, 60.568092 ], [ 26.885153, 60.568047 ], [ 26.885645, 60.567976 ], [ 26.886111, 60.567858 ], [ 26.886537, 60.567707 ], [ 26.886929, 60.567496 ], [ 26.887139, 60.567358 ], [ 26.887252, 60.567125 ], [ 26.88747, 60.566947 ], [ 26.888622, 60.567233 ], [ 26.889627, 60.567612 ], [ 26.890757, 60.56785 ], [ 26.8917, 60.568078 ], [ 26.891961, 60.568113 ], [ 26.892463, 60.568055 ], [ 26.893036, 60.567926 ], [ 26.893613, 60.567749 ], [ 26.894247, 60.567585 ], [ 26.895289, 60.567132 ], [ 26.896106, 60.566585 ] ] } },
{ "type": "Feature", "properties": { }, "geometry": { "type": "LineString", "coordinates": [ [ 26.902053, 60.603901 ], [ 26.902408, 60.604002 ], [ 26.902825, 60.604065 ], [ 26.903157, 60.604136 ], [ 26.903481, 60.60421 ], [ 26.903617, 60.604216 ], [ 26.903739, 60.604209 ] ] } },
{ "type": "Feature", "properties": { }, "geometry": { "type": "LineString", "coordinates": [ [ 26.903821, 60.604075 ], [ 26.903741, 60.604014 ], [ 26.903574, 60.60399 ], [ 26.903306, 60.604019 ], [ 26.902825, 60.604065 ] ] } },
{ "type": "Feature", "properties": { }, "geometry": { "type": "LineString", "coordinates": [ [ 26.901058, 60.605117 ], [ 26.901222, 60.60505 ], [ 26.901279, 60.60501 ], [ 26.901286, 60.604956 ], [ 26.901278, 60.604904 ], [ 26.901118, 60.604776 ], [ 26.901044, 60.604715 ], [ 26.900942, 60.604658 ], [ 26.900707, 60.604539 ], [ 26.900524, 60.604399 ], [ 26.900207, 60.604137 ] ] } },
{ "type": "Feature", "properties": { }, "geometry": { "type": "LineString", "coordinates": [ [ 26.903832, 60.603307 ], [ 26.903765, 60.603251 ], [ 26.903713, 60.603195 ], [ 26.903694, 60.603093 ], [ 26.90378, 60.603017 ], [ 26.903897, 60.602972 ], [ 26.903929, 60.602919 ], [ 26.90394, 60.60286 ], [ 26.903889, 60.602662 ], [ 26.903869, 60.602559 ], [ 26.90388, 60.602458 ] ] } },
{ "type": "Feature", "properties": { }, "geometry": { "type": "LineString", "coordinates": [ [ 26.886628, 60.587643 ], [ 26.886568, 60.587753 ], [ 26.886572, 60.58783 ], [ 26.886638, 60.587896 ], [ 26.886721, 60.587977 ], [ 26.886897, 60.588091 ], [ 26.887048, 60.588219 ], [ 26.887126, 60.588451 ] ] } },
{ "type": "Feature", "properties": { }, "geometry": { "type": "LineString", "coordinates": [ [ 26.887674, 60.589507 ], [ 26.886637, 60.589082 ] ] } },
{ "type": "Feature", "properties": { }, "geometry": { "type": "LineString", "coordinates": [ [ 26.871604, 60.598291 ], [ 26.871431, 60.598188 ], [ 26.871309, 60.598069 ] ] } },
{ "type": "Feature", "properties": { }, "geometry": { "type": "LineString", "coordinates": [ [ 26.907407, 60.596724 ], [ 26.907493, 60.596649 ], [ 26.9076, 60.596583 ], [ 26.907684, 60.596526 ] ] } },
{ "type": "Feature", "properties": { }, "geometry": { "type": "LineString", "coordinates": [ [ 26.895618, 60.604722 ], [ 26.895511, 60.604675 ], [ 26.895422, 60.604624 ], [ 26.895247, 60.604519 ], [ 26.894802, 60.604371 ] ] } },
{ "type": "Feature", "properties": { }, "geometry": { "type": "LineString", "coordinates": [ [ 26.897277, 60.566783 ], [ 26.897516, 60.56659 ], [ 26.897512, 60.566561 ], [ 26.897466, 60.566394 ], [ 26.897444, 60.566234 ], [ 26.897533, 60.566051 ], [ 26.897648, 60.565881 ], [ 26.897744, 60.565739 ], [ 26.898391, 60.565122 ] ] } },
{ "type": "Feature", "properties": { }, "geometry": { "type": "LineString", "coordinates": [ [ 26.893043, 60.605451 ], [ 26.893017, 60.605194 ] ] } },
{ "type": "Feature", "properties": { }, "geometry": { "type": "LineString", "coordinates": [ [ 26.898545, 60.567082 ], [ 26.897986, 60.566976 ], [ 26.897873, 60.566848 ], [ 26.897954, 60.566313 ], [ 26.8981, 60.566086 ], [ 26.898191, 60.565971 ], [ 26.898497, 60.565534 ], [ 26.898533, 60.565428 ], [ 26.898478, 60.565274 ], [ 26.898391, 60.565122 ], [ 26.898488, 60.564826 ], [ 26.898785, 60.564614 ], [ 26.898815, 60.564563 ] ] } },
{ "type": "Feature", "properties": { }, "geometry": { "type": "LineString", "coordinates": [ [ 26.87302, 60.59908 ], [ 26.872927, 60.599098 ], [ 26.872802, 60.599107 ], [ 26.872842, 60.599163 ], [ 26.87293, 60.599232 ], [ 26.872986, 60.59928 ], [ 26.872763, 60.599382 ], [ 26.872651, 60.599399 ], [ 26.872508, 60.599465 ], [ 26.872396, 60.599565 ], [ 26.872178, 60.599793 ], [ 26.872077, 60.59983 ], [ 26.871984, 60.599911 ], [ 26.87196, 60.600048 ], [ 26.871725, 60.600287 ], [ 26.871568, 60.600362 ], [ 26.87147, 60.600433 ], [ 26.871271, 60.60046 ], [ 26.871147, 60.600486 ], [ 26.870975, 60.600495 ], [ 26.870772, 60.600538 ], [ 26.870894, 60.600655 ], [ 26.871009, 60.600722 ], [ 26.871137, 60.600753 ], [ 26.871225, 60.600803 ], [ 26.871308, 60.600876 ], [ 26.8715, 60.600938 ], [ 26.871624, 60.600953 ], [ 26.871766, 60.600973 ], [ 26.87182, 60.601026 ], [ 26.872002, 60.601041 ], [ 26.872276, 60.601182 ], [ 26.87242, 60.601245 ], [ 26.872484, 60.60128 ], [ 26.872301, 60.601328 ], [ 26.872369, 60.601415 ], [ 26.87259, 60.601459 ], [ 26.872734, 60.601472 ], [ 26.872842, 60.601541 ], [ 26.873008, 60.601542 ], [ 26.873045, 60.601565 ], [ 26.873015, 60.601598 ], [ 26.873057, 60.601737 ], [ 26.873114, 60.601777 ], [ 26.873123, 60.601817 ], [ 26.873079, 60.601839 ], [ 26.873219, 60.602023 ], [ 26.873292, 60.602072 ], [ 26.873227, 60.602152 ], [ 26.87304, 60.602236 ], [ 26.872965, 60.602308 ], [ 26.872989, 60.602395 ], [ 26.873058, 60.60249 ], [ 26.873077, 60.60261 ], [ 26.873043, 60.602666 ], [ 26.872879, 60.602757 ], [ 26.872879, 60.602863 ], [ 26.872827, 60.603003 ], [ 26.872751, 60.603116 ], [ 26.872781, 60.603183 ] ] } },
{ "type": "Feature", "properties": { }, "geometry": { "type": "LineString", "coordinates": [ [ 26.870375, 60.598048 ], [ 26.870264, 60.598058 ], [ 26.870194, 60.598082 ], [ 26.870004, 60.598064 ], [ 26.869797, 60.598092 ], [ 26.869575, 60.598266 ], [ 26.869489, 60.598313 ], [ 26.869248, 60.598509 ], [ 26.869079, 60.598408 ], [ 26.868902, 60.598337 ], [ 26.868675, 60.598193 ], [ 26.868655, 60.598121 ], [ 26.868561, 60.598046 ], [ 26.868338, 60.598012 ], [ 26.868262, 60.597984 ] ] } },
{ "type": "Feature", "properties": { }, "geometry": { "type": "LineString", "coordinates": [ [ 26.87313, 60.598622 ], [ 26.873121, 60.598554 ], [ 26.873161, 60.598523 ], [ 26.873467, 60.598607 ], [ 26.873681, 60.598625 ], [ 26.873799, 60.598585 ], [ 26.873697, 60.598462 ], [ 26.873655, 60.598424 ], [ 26.873762, 60.598328 ], [ 26.873756, 60.598234 ], [ 26.873904, 60.598101 ], [ 26.874027, 60.597972 ], [ 26.874135, 60.597952 ], [ 26.873842, 60.597829 ], [ 26.873378, 60.597656 ], [ 26.873206, 60.597576 ], [ 26.872989, 60.597451 ], [ 26.872869, 60.597384 ], [ 26.872866, 60.59727 ], [ 26.87293, 60.597162 ], [ 26.872978, 60.59709 ], [ 26.873035, 60.596829 ] ] } },
{ "type": "Feature", "properties": { }, "geometry": { "type": "LineString", "coordinates": [ [ 26.897179, 60.562486 ], [ 26.896807, 60.56244 ], [ 26.896679, 60.562423 ], [ 26.896415, 60.562241 ], [ 26.896134, 60.562145 ], [ 26.896113, 60.562044 ], [ 26.896134, 60.561934 ], [ 26.89616, 60.561906 ], [ 26.89613, 60.561892 ], [ 26.895968, 60.561887 ], [ 26.895904, 60.561867 ], [ 26.895951, 60.561735 ], [ 26.8959, 60.561526 ], [ 26.895711, 60.561364 ], [ 26.895657, 60.56122 ], [ 26.895534, 60.561172 ], [ 26.895474, 60.561132 ], [ 26.895508, 60.561017 ], [ 26.895661, 60.560912 ], [ 26.895859, 60.560843 ] ] } },
{ "type": "Feature", "properties": { }, "geometry": { "type": "LineString", "coordinates": [ [ 26.917914, 60.605716 ], [ 26.917468, 60.605518 ], [ 26.917153, 60.605159 ], [ 26.916812, 60.605038 ], [ 26.91648, 60.604804 ], [ 26.916557, 60.604674 ], [ 26.916489, 60.604574 ], [ 26.916165, 60.60462 ], [ 26.915578, 60.604549 ], [ 26.915212, 60.604419 ], [ 26.914488, 60.604331 ], [ 26.914139, 60.604193 ], [ 26.913117, 60.604323 ], [ 26.912844, 60.604244 ], [ 26.912478, 60.604277 ], [ 26.911754, 60.60403 ], [ 26.911158, 60.603709 ], [ 26.910656, 60.603642 ], [ 26.910469, 60.603575 ], [ 26.90995, 60.6036 ] ] } },
{ "type": "Feature", "properties": { }, "geometry": { "type": "LineString", "coordinates": [ [ 26.87993, 60.598261 ], [ 26.879846, 60.598146 ], [ 26.879832, 60.598078 ], [ 26.879775, 60.597955 ], [ 26.879755, 60.597843 ], [ 26.87968, 60.597771 ], [ 26.879484, 60.597656 ], [ 26.879457, 60.597591 ], [ 26.879498, 60.597496 ], [ 26.879531, 60.597407 ], [ 26.879472, 60.59726 ], [ 26.879423, 60.597161 ], [ 26.879206, 60.596957 ], [ 26.87919, 60.596892 ], [ 26.879237, 60.596795 ], [ 26.879218, 60.596755 ], [ 26.879026, 60.596653 ], [ 26.878966, 60.59659 ], [ 26.878909, 60.596403 ], [ 26.878821, 60.59633 ], [ 26.878714, 60.596303 ], [ 26.878491, 60.596274 ], [ 26.878342, 60.596223 ] ] } },
{ "type": "Feature", "properties": { }, "geometry": { "type": "LineString", "coordinates": [ [ 26.901394, 60.562279 ], [ 26.90092, 60.562131 ], [ 26.900745, 60.562022 ], [ 26.900378, 60.561966 ] ] } },
{ "type": "Feature", "properties": { }, "geometry": { "type": "LineString", "coordinates": [ [ 26.899808, 60.56176 ], [ 26.899294, 60.561709 ], [ 26.89908, 60.561909 ] ] } },
{ "type": "Feature", "properties": { }, "geometry": { "type": "LineString", "coordinates": [ [ 26.896106, 60.566585 ], [ 26.896811, 60.566695 ] ] } },
{ "type": "Feature", "properties": { }, "geometry": { "type": "LineString", "coordinates": [ [ 26.900061, 60.564952 ], [ 26.899939, 60.564881 ], [ 26.899702, 60.564731 ], [ 26.899567, 60.564607 ], [ 26.899274, 60.564504 ], [ 26.898951, 60.564389 ], [ 26.898911, 60.564342 ] ] } },
{ "type": "Feature", "properties": { }, "geometry": { "type": "LineString", "coordinates": [ [ 26.910823, 60.578646 ], [ 26.910335, 60.578543 ], [ 26.909725, 60.578338 ], [ 26.909496, 60.578321 ], [ 26.90916, 60.578224 ], [ 26.908929, 60.578242 ], [ 26.90862, 60.578498 ], [ 26.908387, 60.578504 ], [ 26.907969, 60.578341 ], [ 26.908013, 60.578245 ], [ 26.908437, 60.578205 ], [ 26.908498, 60.578114 ], [ 26.908482, 60.577785 ] ] } },
{ "type": "Feature", "properties": { }, "geometry": { "type": "LineString", "coordinates": [ [ 26.883687, 60.589707 ], [ 26.883265, 60.58981 ] ] } },
{ "type": "Feature", "properties": { }, "geometry": { "type": "LineString", "coordinates": [ [ 26.90543, 60.6058 ], [ 26.905383, 60.6058 ], [ 26.905121, 60.605575 ], [ 26.905122, 60.6052 ], [ 26.904928, 60.604908 ], [ 26.904582, 60.604712 ], [ 26.90405, 60.604509 ], [ 26.903687, 60.604309 ] ] } },
{ "type": "Feature", "properties": { }, "geometry": { "type": "LineString", "coordinates": [ [ 26.903463, 60.608998 ], [ 26.903676, 60.608942 ], [ 26.904319, 60.6088 ], [ 26.9049, 60.608718 ] ] } },
{ "type": "Feature", "properties": { }, "geometry": { "type": "LineString", "coordinates": [ [ 26.895385, 60.621285 ], [ 26.895385, 60.621297 ], [ 26.894853, 60.621739 ], [ 26.894611, 60.62201 ], [ 26.89432, 60.622133 ] ] } }
]
}
